STARLINK-5303           
1 55630U 23021C   24237.21636092  .00000758  00000+0  71310-4 0  9999
2 55630  70.0001 182.7121 0002975 269.9326  90.1492 14.98331491 83741
STARLINK-5558           
1 55631U 23021D   24237.19131540  .00000410  00000+0  42137-4 0  9995
2 55631  69.9996 182.6225 0003142 271.7425  88.3374 14.98331137 83749
STARLINK-5546           
1 55632U 23021E   24236.87421521  .00001069  00000+0  97391-4 0  9994
2 55632  70.0000 183.5222 0002919 269.8698  90.2126 14.98329001 83695
STARLINK-5498           
1 55633U 23021F   24237.20383802 -.00000642  00000+0 -46032-4 0  9996
2 55633  70.0004 182.6662 0002923 269.1306  90.9518 14.98339872 83747
STARLINK-5500           
1 55634U 23021G   24236.87437965  .00001165  00000+0  10544-3 0  9996
2 55634  69.9995 183.5245 0003048 269.5813  90.4996 14.98328559 83696
STARLINK-5495           
1 55635U 23021H   24236.85311982  .00001368  00000+0  12243-3 0  9998
2 55635  70.0002 163.5835 0002843 264.8882  95.1953 14.98331347 84187
STARLINK-5218           
1 55636U 23021J   24237.19552195 -.00002347  00000+0 -18914-3 0  9991
2 55636  70.0003 182.6386 0003064 270.6487  89.4321 14.98301439 83749
STARLINK-5062           
1 55637U 23021K   24236.86981868  .00000450  00000+0  45500-4 0  9991
2 55637  69.9997 163.6370 0002948 269.2993  90.7828 14.98324395 84189
STARLINK-5507           
1 55638U 23021L   24236.86586740  .00000881  00000+0  81633-4 0  9997
2 55638  69.9998 183.4936 0003043 268.3281  91.7530 14.98327302 83693
STARLINK-5508           
1 55639U 23021M   24236.84911386  .00000357  00000+0  37724-4 0  9994
2 55639  70.0004 163.5667 0002653 270.6203  89.4652 14.98324797 84180
STARLINK-5069           
1 55640U 23021N   24237.17856654  .00004747  00000+0  40520-3 0  9993
2 55640  70.0016 162.7080 0002762 261.5123  98.5723 14.98346471 84235
STARLINK-5065           
1 55641U 23021P   24236.85328690  .00000545  00000+0  53454-4 0  9995
2 55641  70.0004 163.5819 0002729 269.1894  90.8952 14.98325816 84187
STARLINK-5483           
1 55643U 23021R   24236.88234038  .00000329  00000+0  35368-4 0  9996
2 55643  70.0001 163.6757 0003045 270.4013  89.6797 14.98327163 84188
STARLINK-5502           
1 55644U 23021S   24236.86147282  .00000612  00000+0  59101-4 0  9995
2 55644  70.0012 163.6124 0003246 280.1930  79.8863 14.98319516 84186
STARLINK-5104           
1 55646U 23021U   24237.20778393  .00002033  00000+0  17811-3 0  9999
2 55646  70.0008 162.8112 0003145 270.6230  89.4569 14.98333685 84235
STARLINK-5510           
1 55647U 23021V   24236.89483601  .00000458  00000+0  46184-4 0  9994
2 55647  70.0008 163.3218 0002941 271.2584  88.8238 14.98326535 84198
STARLINK-5501           
1 55648U 23021W   24236.85729374  .00000733  00000+0  69184-4 0  9992
2 55648  70.0004 163.5956 0002756 268.7221  91.3623 14.98329228 84187
STARLINK-5469           
1 55649U 23021X   24236.83642582  .00000890  00000+0  82340-4 0  9999
2 55649  70.0008 163.5210 0002652 270.6992  89.3863 14.98326816 84180
STARLINK-5494           
1 55650U 23021Y   24236.84894763  .00000543  00000+0  53289-4 0  9997
2 55650  70.0002 163.5659 0002752 270.4941  89.5902 14.98327456 84183
STARLINK-5506           
1 55651U 23021Z   24236.53184557 -.00000223  00000+0 -10893-4 0  9998
2 55651  70.0007 164.4659 0002873 254.3814 105.7028 14.98323395 84439
STARLINK-5487           
1 55652U 23021AA  24236.84059820 -.00000562  00000+0 -39333-4 0  9993
2 55652  70.0015 163.5358 0002911 270.2205  89.8621 14.98327493 84185
STARLINK-5067           
1 55653U 23021AB  24236.89066030  .00000456  00000+0  46000-4 0  9999
2 55653  70.0003 163.3074 0003038 271.1298  88.9513 14.98328464 84199
STARLINK-5070           
1 55654U 23021AC  24236.54436539  .00000697  00000+0  66230-4 0  9991
2 55654  69.9997 164.5081 0002842 267.0575  93.0259 14.98328677 84138
STARLINK-5267           
1 55655U 23021AD  24236.84872394  .00001222  00000+0  11018-3 0  9996
2 55655  70.0004 143.6924 0002672 275.2956  84.7898 14.98326204 84679
STARLINK-5326           
1 55656U 23021AE  24236.89082846  .00000595  00000+0  57700-4 0  9998
2 55656  70.0004 163.3073 0003015 270.8305  89.2508 14.98326088 84190
STARLINK-5328           
1 55657U 23021AF  24236.85706513 -.00000842  00000+0 -62757-4 0  9994
2 55657  70.0008 143.7243 0002644 249.2565 110.8311 14.98340410 84672
STARLINK-5307           
1 55658U 23021AG  24237.23279761  .00001760  00000+0  15520-3 0  9991
2 55658  70.0007 162.4958 0002820 272.5420  87.5416 14.98339325 84240
STARLINK-5477           
1 55659U 23021AH  24237.18666747  .00006230  00000+0  52902-3 0  9992
2 55659  70.0004 142.8649 0003029 267.9642  92.1170 14.98360542 84720
STARLINK-5467           
1 55660U 23021AJ  24236.46900494  .00000190  00000+0  23709-4 0  9997
2 55660  70.0002 144.3813 0002948 245.2165 114.8688 14.98329313 84927
STARLINK-5475           
1 55661U 23021AK  24236.83620125  .00000707  00000+0  67066-4 0  9997
2 55661  69.9997 143.6482 0002998 272.6734  87.4081 14.98326205 84674
