OBJECT_NAME,OBJECT_ID,EPOCH,MEAN_MOTION,ECCENTRICITY,INCLINATION,RA_OF_ASC_NODE,ARG_OF_PERICENTER,MEAN_ANOMALY,EPHEMERIS_TYPE,CLASSIFICATION_TYPE,NORAD_CAT_ID,ELEMENT_SET_NO,REV_AT_EPOCH,BSTAR,MEAN_MOTION_DOT,MEAN_MOTION_DDOT
STARLINK-5303,2023-021C,2024-08-24T05:11:33.583488,14.98331491,.0002975,70.0001,182.7121,269.9326,90.1492,0,U,55630,999,8374,.7131E-4,.758E-5,0
STARLINK-5558,2023-021D,2024-08-24T04:35:29.650560,14.98331137,.0003142,69.9996,182.6225,271.7425,88.3374,0,U,55631,999,8374,.42137E-4,.41E-5,0
STARLINK-5546,2023-021E,2024-08-23T20:58:52.194144,14.98329001,.0002919,70.0000,183.5222,269.8698,90.2126,0,U,55632,999,8369,.97391E-4,.1069E-4,0
STARLINK-5498,2023-021F,2024-08-24T04:53:31.604928,14.98339872,.0002923,70.0004,182.6662,269.1306,90.9518,0,U,55633,999,8374,-.46032E-4,-.642E-5,0
STARLINK-5500,2023-021G,2024-08-23T20:59:06.401760,14.98328559,.0003048,69.9995,183.5245,269.5813,90.4996,0,U,55634,999,8369,.10544E-3,.1165E-4,0
STARLINK-5495,2023-021H,2024-08-23T20:28:29.552448,14.98331347,.0002843,70.0002,163.5835,264.8882,95.1953,0,U,55635,999,8418,.12243E-3,.1368E-4,0
STARLINK-5218,2023-021J,2024-08-24T04:41:33.096480,14.98301439,.0003064,70.0003,182.6386,270.6487,89.4321,0,U,55636,999,8374,-.18914E-3,-.2347E-4,0
STARLINK-5062,2023-021K,2024-08-23T20:52:32.333952,14.98324395,.0002948,69.9997,163.6370,269.2993,90.7828,0,U,55637,999,8418,.455E-4,.45E-5,0
STARLINK-5507,2023-021L,2024-08-23T20:46:50.943360,14.98327302,.0003043,69.9998,183.4936,268.3281,91.7530,0,U,55638,999,8369,.81633E-4,.881E-5,0
STARLINK-5508,2023-021M,2024-08-23T20:22:43.437504,14.98324797,.0002653,70.0004,163.5667,270.6203,89.4652,0,U,55639,999,8418,.37724E-4,.357E-5,0
STARLINK-5069,2023-021N,2024-08-24T04:17:08.149056,14.98346471,.0002762,70.0016,162.7080,261.5123,98.5723,0,U,55640,999,8423,.4052E-3,.4747E-4,0
STARLINK-5065,2023-021P,2024-08-23T20:28:43.988160,14.98325816,.0002729,70.0004,163.5819,269.1894,90.8952,0,U,55641,999,8418,.53454E-4,.545E-5,0
STARLINK-5483,2023-021R,2024-08-23T21:10:34.208832,14.98327163,.0003045,70.0001,163.6757,270.4013,89.6797,0,U,55643,999,8418,.35368E-4,.329E-5,0
STARLINK-5502,2023-021S,2024-08-23T20:40:31.251648,14.98319516,.0003246,70.0012,163.6124,280.1930,79.8863,0,U,55644,999,8418,.59101E-4,.612E-5,0
STARLINK-5104,2023-021U,2024-08-24T04:59:12.531552,14.98333685,.0003145,70.0008,162.8112,270.6230,89.4569,0,U,55646,999,8423,.17811E-3,.2033E-4,0
STARLINK-5510,2023-021V,2024-08-23T21:28:33.831264,14.98326535,.0002941,70.0008,163.3218,271.2584,88.8238,0,U,55647,999,8419,.46184E-4,.458E-5,0
STARLINK-5501,2023-021W,2024-08-23T20:34:30.179136,14.98329228,.0002756,70.0004,163.5956,268.7221,91.3623,0,U,55648,999,8418,.69184E-4,.733E-5,0
STARLINK-5469,2023-021X,2024-08-23T20:04:27.190848,14.98326816,.0002652,70.0008,163.5210,270.6992,89.3863,0,U,55649,999,8418,.8234E-4,.89E-5,0
STARLINK-5494,2023-021Y,2024-08-23T20:22:29.075232,14.98327456,.0002752,70.0002,163.5659,270.4941,89.5902,0,U,55650,999,8418,.53289E-4,.543E-5,0
STARLINK-5506,2023-021Z,2024-08-23T12:45:51.457248,14.98323395,.0002873,70.0007,164.4659,254.3814,105.7028,0,U,55651,999,8443,-.10893E-4,-.223E-5,0
STARLINK-5487,2023-021AA,2024-08-23T20:10:27.684480,14.98327493,.0002911,70.0015,163.5358,270.2205,89.8621,0,U,55652,999,8418,-.39333E-4,-.562E-5,0
STARLINK-5067,2023-021AB,2024-08-23T21:22:33.049920,14.98328464,.0003038,70.0003,163.3074,271.1298,88.9513,0,U,55653,999,8419,.46E-4,.456E-5,0
STARLINK-5070,2023-021AC,2024-08-23T13:03:53.169696,14.98328677,.0002842,69.9997,164.5081,267.0575,93.0259,0,U,55654,999,8413,.6623E-4,.697E-5,0
STARLINK-5267,2023-021AD,2024-08-23T20:22:09.748416,14.98326204,.0002672,70.0004,143.6924,275.2956,84.7898,0,U,55655,999,8467,.11018E-3,.1222E-4,0
STARLINK-5326,2023-021AE,2024-08-23T21:22:47.578944,14.98326088,.0003015,70.0004,163.3073,270.8305,89.2508,0,U,55656,999,8419,.577E-4,.595E-5,0
STARLINK-5328,2023-021AF,2024-08-23T20:34:10.427232,14.98340410,.0002644,70.0008,143.7243,249.2565,110.8311,0,U,55657,999,8467,-.62757E-4,-.842E-5,0
STARLINK-5307,2023-021AG,2024-08-24T05:35:13.713504,14.98339325,.000282,70.0007,162.4958,272.5420,87.5416,0,U,55658,999,8424,.1552E-3,.176E-4,0
STARLINK-5477,2023-021AH,2024-08-24T04:28:48.069408,14.98360542,.0003029,70.0004,142.8649,267.9642,92.1170,0,U,55659,999,8472,.52902E-3,.623E-4,0
STARLINK-5467,2023-021AJ,2024-08-23T11:15:22.026816,14.98329313,.0002948,70.0002,144.3813,245.2165,114.8688,0,U,55660,999,8492,.23709E-4,.19E-5,0
STARLINK-5475,2023-021AK,2024-08-23T20:04:07.788000,14.98326205,.0002998,69.9997,143.6482,272.6734,87.4081,0,U,55661,999,8467,.67066E-4,.707E-5,0
